MALLIGYONG-1            
1 58400U 23179A   24035.12064306  .00006342  00000+0  27816-3 0  9996
2 58400  97.4229 283.9259 0016448  22.7849 337.4113 15.22202611 11337
